OBJECT B                
1 51825U 22019B   24295.84841226  .00030460  00000+0  11300-2 0  9991
2 51825  97.4150   5.9791 0014011 149.7763 210.4287 15.27451554146525
